{
  "type": "FeatureCollection",
  "features": [
    {
      "type": "Feature",
      "properties": {
        "district_id": "garhwa",
        "district_name": "Garhwa",
        "state": "Jharkhand"
      },
      "geometry": {
        "type": "Polygon",
        "coordinates": [
          [
            [
              83.332,
              24.578
            ],
            [
              83.385,
              24.602
            ],
            [
              83.412,
              24.615
            ],
            [
              83.456,
              24.638
            ],
            [
              83.498,
              24.652
            ],
            [
              83.542,
              24.645
            ],
            [
              83.584,
              24.635
            ],
            [
              83.628,
              24.622
            ],
            [
              83.678,
              24.612
            ],
            [
              83.712,
              24.595
            ],
            [
              83.742,
              24.578
            ],
            [
              83.782,
              24.545
            ],
            [
              83.815,
              24.512
            ],
            [
              83.854,
              24.478
            ],
            [
              83.892,
              24.448
            ],
            [
              83.922,
              24.382
            ],
            [
              83.952,
              24.318
            ],
            [
              83.945,
              24.212
            ],
            [
              83.935,
              24.112
            ],
            [
              83.925,
              24.025
            ],
            [
              83.918,
              23.945
            ],
            [
              83.895,
              23.882
            ],
            [
              83.875,
              23.821
            ],
            [
              83.858,
              23.785
            ],
            [
              83.842,
              23.754
            ],
            [
              83.805,
              23.698
            ],
            [
              83.762,
              23.648
            ],
            [
              83.718,
              23.618
            ],
            [
              83.678,
              23.598
            ],
            [
              83.612,
              23.638
            ],
            [
              83.542,
              23.682
            ],
            [
              83.478,
              23.745
            ],
            [
              83.421,
              23.815
            ],
            [
              83.398,
              23.962
            ],
            [
              83.375,
              24.112
            ],
            [
              83.355,
              24.232
            ],
            [
              83.342,
              24.348
            ],
            [
              83.336,
              24.462
            ],
            [
              83.332,
              24.578
            ]
          ]
        ]
      }
    },
    {
      "type": "Feature",
      "properties": {
        "district_id": "palamu",
        "district_name": "Palamu",
        "state": "Jharkhand"
      },
      "geometry": {
        "type": "Polygon",
        "coordinates": [
          [
            [
              83.952,
              24.618
            ],
            [
              84.015,
              24.63
            ],
            [
              84.082,
              24.642
            ],
            [
              84.135,
              24.648
            ],
            [
              84.185,
              24.654
            ],
            [
              84.248,
              24.645
            ],
            [
              84.312,
              24.635
            ],
            [
              84.382,
              24.622
            ],
            [
              84.452,
              24.612
            ],
            [
              84.515,
              24.595
            ],
            [
              84.578,
              24.578
            ],
            [
              84.632,
              24.562
            ],
            [
              84.684,
              24.548
            ],
            [
              84.715,
              24.465
            ],
            [
              84.742,
              24.382
            ],
            [
              84.762,
              24.25
            ],
            [
              84.782,
              24.118
            ],
            [
              84.738,
              24.052
            ],
            [
              84.695,
              23.985
            ],
            [
              84.638,
              23.932
            ],
            [
              84.584,
              23.882
            ],
            [
              84.492,
              23.845
            ],
            [
              84.398,
              23.812
            ],
            [
              84.308,
              23.782
            ],
            [
              84.218,
              23.754
            ],
            [
              84.148,
              23.798
            ],
            [
              84.082,
              23.842
            ],
            [
              83.998,
              23.892
            ],
            [
              83.918,
              23.945
            ],
            [
              83.925,
              24.025
            ],
            [
              83.935,
              24.112
            ],
            [
              83.945,
              24.212
            ],
            [
              83.952,
              24.318
            ],
            [
              83.952,
              24.618
            ]
          ]
        ]
      }
    },
    {
      "type": "Feature",
      "properties": {
        "district_id": "chatra",
        "district_name": "Chatra",
        "state": "Jharkhand"
      },
      "geometry": {
        "type": "Polygon",
        "coordinates": [
          [
            [
              84.684,
              24.548
            ],
            [
              84.748,
              24.541
            ],
            [
              84.812,
              24.535
            ],
            [
              84.882,
              24.528
            ],
            [
              84.952,
              24.521
            ],
            [
              85.032,
              24.508
            ],
            [
              85.112,
              24.498
            ],
            [
              85.198,
              24.488
            ],
            [
              85.284,
              24.478
            ],
            [
              85.312,
              24.382
            ],
            [
              85.342,
              24.285
            ],
            [
              85.362,
              24.152
            ],
            [
              85.382,
              24.018
            ],
            [
              85.312,
              23.956
            ],
            [
              85.242,
              23.895
            ],
            [
              85.162,
              23.838
            ],
            [
              85.082,
              23.782
            ],
            [
              85.002,
              23.865
            ],
            [
              84.921,
              23.948
            ],
            [
              84.852,
              24.032
            ],
            [
              84.782,
              24.118
            ],
            [
              84.762,
              24.25
            ],
            [
              84.742,
              24.382
            ],
            [
              84.684,
              24.548
            ]
          ]
        ]
      }
    },
    {
      "type": "Feature",
      "properties": {
        "district_id": "hazaribagh",
        "district_name": "Hazaribagh",
        "state": "Jharkhand"
      },
      "geometry": {
        "type": "Polygon",
        "coordinates": [
          [
            [
              85.284,
              24.478
            ],
            [
              85.368,
              24.471
            ],
            [
              85.452,
              24.465
            ],
            [
              85.548,
              24.458
            ],
            [
              85.642,
              24.452
            ],
            [
              85.712,
              24.442
            ],
            [
              85.782,
              24.435
            ],
            [
              85.852,
              24.426
            ],
            [
              85.921,
              24.418
            ],
            [
              85.942,
              24.35
            ],
            [
              85.962,
              24.282
            ],
            [
              85.972,
              24.215
            ],
            [
              85.982,
              24.148
            ],
            [
              85.938,
              24.046
            ],
            [
              85.892,
              23.945
            ],
            [
              85.838,
              23.848
            ],
            [
              85.782,
              23.754
            ],
            [
              85.698,
              23.732
            ],
            [
              85.612,
              23.712
            ],
            [
              85.515,
              23.695
            ],
            [
              85.418,
              23.678
            ],
            [
              85.33,
              23.71
            ],
            [
              85.242,
              23.742
            ],
            [
              85.162,
              23.762
            ],
            [
              85.082,
              23.782
            ],
            [
              85.162,
              23.838
            ],
            [
              85.242,
              23.895
            ],
            [
              85.312,
              23.956
            ],
            [
              85.382,
              24.018
            ],
            [
              85.362,
              24.152
            ],
            [
              85.342,
              24.285
            ],
            [
              85.284,
              24.478
            ]
          ]
        ]
      }
    },
    {
      "type": "Feature",
      "properties": {
        "district_id": "koderma",
        "district_name": "Koderma",
        "state": "Jharkhand"
      },
      "geometry": {
        "type": "Polygon",
        "coordinates": [
          [
            [
              85.618,
              24.718
            ],
            [
              85.7,
              24.715
            ],
            [
              85.782,
              24.712
            ],
            [
              85.848,
              24.707
            ],
            [
              85.915,
              24.702
            ],
            [
              85.982,
              24.697
            ],
            [
              86.048,
              24.692
            ],
            [
              86.115,
              24.685
            ],
            [
              86.182,
              24.678
            ],
            [
              86.2,
              24.588
            ],
            [
              86.218,
              24.498
            ],
            [
              86.235,
              24.408
            ],
            [
              86.252,
              24.318
            ],
            [
              86.168,
              24.343
            ],
            [
              86.082,
              24.368
            ],
            [
              86.002,
              24.393
            ],
            [
              85.921,
              24.418
            ],
            [
              85.852,
              24.426
            ],
            [
              85.782,
              24.435
            ],
            [
              85.642,
              24.452
            ],
            [
              85.618,
              24.718
            ]
          ]
        ]
      }
    },
    {
      "type": "Feature",
      "properties": {
        "district_id": "giridih",
        "district_name": "Giridih",
        "state": "Jharkhand"
      },
      "geometry": {
        "type": "Polygon",
        "coordinates": [
          [
            [
              85.921,
              24.418
            ],
            [
              86.002,
              24.393
            ],
            [
              86.082,
              24.368
            ],
            [
              86.168,
              24.343
            ],
            [
              86.252,
              24.318
            ],
            [
              86.335,
              24.365
            ],
            [
              86.418,
              24.412
            ],
            [
              86.5,
              24.462
            ],
            [
              86.582,
              24.512
            ],
            [
              86.65,
              24.547
            ],
            [
              86.718,
              24.582
            ],
            [
              86.785,
              24.615
            ],
            [
              86.852,
              24.648
            ],
            [
              86.872,
              24.498
            ],
            [
              86.892,
              24.348
            ],
            [
              86.907,
              24.198
            ],
            [
              86.921,
              24.048
            ],
            [
              86.818,
              24.015
            ],
            [
              86.712,
              23.982
            ],
            [
              86.598,
              23.95
            ],
            [
              86.482,
              23.918
            ],
            [
              86.362,
              23.975
            ],
            [
              86.242,
              24.032
            ],
            [
              86.112,
              24.09
            ],
            [
              85.982,
              24.148
            ],
            [
              85.962,
              24.282
            ],
            [
              85.921,
              24.418
            ]
          ]
        ]
      }
    },
    {
      "type": "Feature",
      "properties": {
        "district_id": "deoghar",
        "district_name": "Deoghar",
        "state": "Jharkhand"
      },
      "geometry": {
        "type": "Polygon",
        "coordinates": [
          [
            [
              86.482,
              24.678
            ],
            [
              86.57,
              24.675
            ],
            [
              86.658,
              24.671
            ],
            [
              86.75,
              24.667
            ],
            [
              86.842,
              24.662
            ],
            [
              86.898,
              24.658
            ],
            [
              86.952,
              24.655
            ],
            [
              87.002,
              24.651
            ],
            [
              87.052,
              24.648
            ],
            [
              87.068,
              24.53
            ],
            [
              87.085,
              24.412
            ],
            [
              87.102,
              24.295
            ],
            [
              87.118,
              24.178
            ],
            [
              86.992,
              24.138
            ],
            [
              86.865,
              24.098
            ],
            [
              86.742,
              24.058
            ],
            [
              86.618,
              24.018
            ],
            [
              86.585,
              24.183
            ],
            [
              86.548,
              24.348
            ],
            [
              86.515,
              24.513
            ],
            [
              86.482,
              24.678
            ]
          ]
        ]
      }
    },
    {
      "type": "Feature",
      "properties": {
        "district_id": "dumka",
        "district_name": "Dumka",
        "state": "Jharkhand"
      },
      "geometry": {
        "type": "Polygon",
        "coordinates": [
          [
            [
              87.052,
              24.648
            ],
            [
              87.118,
              24.64
            ],
            [
              87.185,
              24.632
            ],
            [
              87.252,
              24.622
            ],
            [
              87.318,
              24.612
            ],
            [
              87.385,
              24.603
            ],
            [
              87.452,
              24.595
            ],
            [
              87.518,
              24.586
            ],
            [
              87.582,
              24.578
            ],
            [
              87.568,
              24.438
            ],
            [
              87.552,
              24.298
            ],
            [
              87.535,
              24.158
            ],
            [
              87.518,
              24.018
            ],
            [
              87.402,
              24.033
            ],
            [
              87.285,
              24.048
            ],
            [
              87.168,
              24.063
            ],
            [
              87.052,
              24.078
            ],
            [
              87.068,
              24.245
            ],
            [
              87.085,
              24.412
            ],
            [
              87.068,
              24.53
            ],
            [
              87.052,
              24.648
            ]
          ]
        ]
      }
    },
    {
      "type": "Feature",
      "properties": {
        "district_id": "godda",
        "district_name": "Godda",
        "state": "Jharkhand"
      },
      "geometry": {
        "type": "Polygon",
        "coordinates": [
          [
            [
              87.148,
              25.118
            ],
            [
              87.218,
              25.135
            ],
            [
              87.285,
              25.152
            ],
            [
              87.352,
              25.167
            ],
            [
              87.418,
              25.182
            ],
            [
              87.485,
              25.192
            ],
            [
              87.552,
              25.201
            ],
            [
              87.618,
              25.21
            ],
            [
              87.682,
              25.218
            ],
            [
              87.7,
              25.018
            ],
            [
              87.718,
              25.018
            ],
            [
              87.735,
              24.918
            ],
            [
              87.752,
              24.818
            ],
            [
              87.668,
              24.783
            ],
            [
              87.585,
              24.748
            ],
            [
              87.502,
              24.713
            ],
            [
              87.418,
              24.678
            ],
            [
              87.352,
              24.788
            ],
            [
              87.285,
              24.898
            ],
            [
              87.218,
              25.008
            ],
            [
              87.148,
              25.118
            ]
          ]
        ]
      }
    },
    {
      "type": "Feature",
      "properties": {
        "district_id": "sahibganj",
        "district_name": "Sahibganj",
        "state": "Jharkhand"
      },
      "geometry": {
        "type": "Polygon",
        "coordinates": [
          [
            [
              87.682,
              25.218
            ],
            [
              87.735,
              25.235
            ],
            [
              87.785,
              25.251
            ],
            [
              87.838,
              25.267
            ],
            [
              87.892,
              25.284
            ],
            [
              87.924,
              25.292
            ],
            [
              87.955,
              25.301
            ],
            [
              87.986,
              25.31
            ],
            [
              88.018,
              25.318
            ],
            [
              88.018,
              25.2
            ],
            [
              88.018,
              25.082
            ],
            [
              88.018,
              24.965
            ],
            [
              88.018,
              24.848
            ],
            [
              87.952,
              24.84
            ],
            [
              87.885,
              24.832
            ],
            [
              87.818,
              24.825
            ],
            [
              87.752,
              24.818
            ],
            [
              87.735,
              24.918
            ],
            [
              87.718,
              25.018
            ],
            [
              87.7,
              25.118
            ],
            [
              87.682,
              25.218
            ]
          ]
        ]
      }
    },
    {
      "type": "Feature",
      "properties": {
        "district_id": "pakur",
        "district_name": "Pakur",
        "state": "Jharkhand"
      },
      "geometry": {
        "type": "Polygon",
        "coordinates": [
          [
            [
              87.752,
              24.818
            ],
            [
              87.818,
              24.825
            ],
            [
              87.885,
              24.832
            ],
            [
              87.952,
              24.84
            ],
            [
              88.018,
              24.848
            ],
            [
              88.008,
              24.715
            ],
            [
              87.998,
              24.582
            ],
            [
              87.988,
              24.45
            ],
            [
              87.978,
              24.318
            ],
            [
              87.863,
              24.343
            ],
            [
              87.748,
              24.368
            ],
            [
              87.633,
              24.393
            ],
            [
              87.518,
              24.418
            ],
            [
              87.576,
              24.518
            ],
            [
              87.635,
              24.618
            ],
            [
              87.693,
              24.718
            ],
            [
              87.752,
              24.818
            ]
          ]
        ]
      }
    },
    {
      "type": "Feature",
      "properties": {
        "district_id": "jamtara",
        "district_name": "Jamtara",
        "state": "Jharkhand"
      },
      "geometry": {
        "type": "Polygon",
        "coordinates": [
          [
            [
              86.618,
              24.018
            ],
            [
              86.726,
              24.033
            ],
            [
              86.835,
              24.048
            ],
            [
              86.943,
              24.063
            ],
            [
              87.052,
              24.078
            ],
            [
              87.16,
              24.063
            ],
            [
              87.268,
              24.048
            ],
            [
              87.375,
              24.033
            ],
            [
              87.482,
              24.018
            ],
            [
              87.382,
              23.943
            ],
            [
              87.282,
              23.868
            ],
            [
              87.182,
              23.793
            ],
            [
              87.082,
              23.718
            ],
            [
              86.956,
              23.743
            ],
            [
              86.83,
              23.768
            ],
            [
              86.704,
              23.793
            ],
            [
              86.578,
              23.818
            ],
            [
              86.588,
              23.868
            ],
            [
              86.598,
              23.918
            ],
            [
              86.608,
              23.968
            ],
            [
              86.618,
              24.018
            ]
          ]
        ]
      }
    },
    {
      "type": "Feature",
      "properties": {
        "district_id": "dhanbad",
        "district_name": "Dhanbad",
        "state": "Jharkhand"
      },
      "geometry": {
        "type": "Polygon",
        "coordinates": [
          [
            [
              86.118,
              23.948
            ],
            [
              86.233,
              23.915
            ],
            [
              86.348,
              23.882
            ],
            [
              86.463,
              23.85
            ],
            [
              86.578,
              23.818
            ],
            [
              86.613,
              23.725
            ],
            [
              86.648,
              23.632
            ],
            [
              86.683,
              23.54
            ],
            [
              86.718,
              23.448
            ],
            [
              86.568,
              23.455
            ],
            [
              86.418,
              23.462
            ],
            [
              86.268,
              23.47
            ],
            [
              86.118,
              23.478
            ],
            [
              86.118,
              23.63
            ],
            [
              86.118,
              23.712
            ],
            [
              86.118,
              23.83
            ],
            [
              86.118,
              23.948
            ]
          ]
        ]
      }
    },
    {
      "type": "Feature",
      "properties": {
        "district_id": "bokaro",
        "district_name": "Bokaro",
        "state": "Jharkhand"
      },
      "geometry": {
        "type": "Polygon",
        "coordinates": [
          [
            [
              85.782,
              23.978
            ],
            [
              85.957,
              23.963
            ],
            [
              86.132,
              23.948
            ],
            [
              86.307,
              23.933
            ],
            [
              86.482,
              23.918
            ],
            [
              86.482,
              23.8
            ],
            [
              86.482,
              23.682
            ],
            [
              86.482,
              23.565
            ],
            [
              86.482,
              23.448
            ],
            [
              86.332,
              23.455
            ],
            [
              86.182,
              23.462
            ],
            [
              86.032,
              23.47
            ],
            [
              85.882,
              23.478
            ],
            [
              85.806,
              23.528
            ],
            [
              85.73,
              23.578
            ],
            [
              85.654,
              23.628
            ],
            [
              85.578,
              23.678
            ],
            [
              85.629,
              23.753
            ],
            [
              85.68,
              23.828
            ],
            [
              85.731,
              23.903
            ],
            [
              85.782,
              23.978
            ]
          ]
        ]
      }
    },
    {
      "type": "Feature",
      "properties": {
        "district_id": "ramgarh",
        "district_name": "Ramgarh",
        "state": "Jharkhand"
      },
      "geometry": {
        "type": "Polygon",
        "coordinates": [
          [
            [
              85.418,
              23.678
            ],
            [
              85.534,
              23.628
            ],
            [
              85.65,
              23.578
            ],
            [
              85.766,
              23.528
            ],
            [
              85.882,
              23.478
            ],
            [
              85.816,
              23.413
            ],
            [
              85.75,
              23.348
            ],
            [
              85.684,
              23.283
            ],
            [
              85.618,
              23.218
            ],
            [
              85.533,
              23.25
            ],
            [
              85.448,
              23.282
            ],
            [
              85.363,
              23.315
            ],
            [
              85.278,
              23.348
            ],
            [
              85.313,
              23.43
            ],
            [
              85.348,
              23.512
            ],
            [
              85.383,
              23.595
            ],
            [
              85.418,
              23.678
            ]
          ]
        ]
      }
    },
    {
      "type": "Feature",
      "properties": {
        "district_id": "latehar",
        "district_name": "Latehar",
        "state": "Jharkhand"
      },
      "geometry": {
        "type": "Polygon",
        "coordinates": [
          [
            [
              84.218,
              23.754
            ],
            [
              84.384,
              23.77
            ],
            [
              84.55,
              23.786
            ],
            [
              84.716,
              23.802
            ],
            [
              84.882,
              23.818
            ],
            [
              84.932,
              23.809
            ],
            [
              84.982,
              23.8
            ],
            [
              85.032,
              23.791
            ],
            [
              85.082,
              23.782
            ],
            [
              85.032,
              23.648
            ],
            [
              84.982,
              23.515
            ],
            [
              84.932,
              23.381
            ],
            [
              84.882,
              23.248
            ],
            [
              84.716,
              23.24
            ],
            [
              84.55,
              23.233
            ],
            [
              84.218,
              23.218
            ],
            [
              84.083,
              23.313
            ],
            [
              83.948,
              23.408
            ],
            [
              83.813,
              23.503
            ],
            [
              83.678,
              23.598
            ],
            [
              83.813,
              23.637
            ],
            [
              83.948,
              23.676
            ],
            [
              84.083,
              23.715
            ],
            [
              84.218,
              23.754
            ]
          ]
        ]
      }
    },
    {
      "type": "Feature",
      "properties": {
        "district_id": "lohardaga",
        "district_name": "Lohardaga",
        "state": "Jharkhand"
      },
      "geometry": {
        "type": "Polygon",
        "coordinates": [
          [
            [
              84.578,
              23.518
            ],
            [
              84.688,
              23.525
            ],
            [
              84.798,
              23.533
            ],
            [
              84.908,
              23.54
            ],
            [
              85.018,
              23.548
            ],
            [
              85.001,
              23.465
            ],
            [
              84.985,
              23.383
            ],
            [
              84.968,
              23.3
            ],
            [
              84.952,
              23.218
            ],
            [
              84.833,
              23.218
            ],
            [
              84.715,
              23.218
            ],
            [
              84.596,
              23.218
            ],
            [
              84.478,
              23.218
            ],
            [
              84.503,
              23.293
            ],
            [
              84.528,
              23.368
            ],
            [
              84.553,
              23.443
            ],
            [
              84.578,
              23.518
            ]
          ]
        ]
      }
    },
    {
      "type": "Feature",
      "properties": {
        "district_id": "ranchi",
        "district_name": "Ranchi",
        "state": "Jharkhand"
      },
      "geometry": {
        "type": "Polygon",
        "coordinates": [
          [
            [
              85.018,
              23.548
            ],
            [
              85.234,
              23.53
            ],
            [
              85.45,
              23.513
            ],
            [
              85.666,
              23.495
            ],
            [
              85.882,
              23.478
            ],
            [
              85.906,
              23.413
            ],
            [
              85.93,
              23.348
            ],
            [
              85.954,
              23.283
            ],
            [
              85.978,
              23.218
            ],
            [
              85.938,
              23.133
            ],
            [
              85.898,
              23.048
            ],
            [
              85.858,
              22.963
            ],
            [
              85.818,
              22.878
            ],
            [
              85.668,
              22.87
            ],
            [
              85.518,
              22.863
            ],
            [
              85.368,
              22.855
            ],
            [
              85.218,
              22.848
            ],
            [
              85.151,
              22.94
            ],
            [
              85.085,
              23.033
            ],
            [
              85.018,
              23.125
            ],
            [
              84.952,
              23.218
            ],
            [
              84.968,
              23.3
            ],
            [
              84.985,
              23.383
            ],
            [
              85.001,
              23.465
            ],
            [
              85.018,
              23.548
            ]
          ]
        ]
      }
    },
    {
      "type": "Feature",
      "properties": {
        "district_id": "khunti",
        "district_name": "Khunti",
        "state": "Jharkhand"
      },
      "geometry": {
        "type": "Polygon",
        "coordinates": [
          [
            [
              85.018,
              23.078
            ],
            [
              85.143,
              23.088
            ],
            [
              85.268,
              23.098
            ],
            [
              85.393,
              23.108
            ],
            [
              85.518,
              23.118
            ],
            [
              85.5,
              22.993
            ],
            [
              85.483,
              22.868
            ],
            [
              85.465,
              22.743
            ],
            [
              85.448,
              22.618
            ],
            [
              85.315,
              22.633
            ],
            [
              85.183,
              22.648
            ],
            [
              85.05,
              22.663
            ],
            [
              84.918,
              22.678
            ],
            [
              84.943,
              22.778
            ],
            [
              84.968,
              22.878
            ],
            [
              84.993,
              22.978
            ],
            [
              85.018,
              23.078
            ]
          ]
        ]
      }
    },
    {
      "type": "Feature",
      "properties": {
        "district_id": "gumla",
        "district_name": "Gumla",
        "state": "Jharkhand"
      },
      "geometry": {
        "type": "Polygon",
        "coordinates": [
          [
            [
              83.678,
              23.598
            ],
            [
              83.878,
              23.503
            ],
            [
              84.078,
              23.408
            ],
            [
              84.278,
              23.313
            ],
            [
              84.478,
              23.218
            ],
            [
              84.596,
              23.218
            ],
            [
              84.715,
              23.218
            ],
            [
              84.833,
              23.218
            ],
            [
              84.952,
              23.218
            ],
            [
              84.968,
              23.183
            ],
            [
              84.985,
              23.148
            ],
            [
              85.001,
              23.113
            ],
            [
              85.018,
              23.078
            ],
            [
              84.993,
              22.978
            ],
            [
              84.968,
              22.878
            ],
            [
              84.943,
              22.778
            ],
            [
              84.918,
              22.678
            ],
            [
              84.768,
              22.653
            ],
            [
              84.618,
              22.628
            ],
            [
              84.468,
              22.603
            ],
            [
              84.318,
              22.578
            ],
            [
              84.208,
              22.67
            ],
            [
              84.098,
              22.763
            ],
            [
              83.988,
              22.855
            ],
            [
              83.878,
              22.948
            ],
            [
              83.828,
              23.11
            ],
            [
              83.778,
              23.273
            ],
            [
              83.728,
              23.435
            ],
            [
              83.678,
              23.598
            ]
          ]
        ]
      }
    },
    {
      "type": "Feature",
      "properties": {
        "district_id": "simdega",
        "district_name": "Simdega",
        "state": "Jharkhand"
      },
      "geometry": {
        "type": "Polygon",
        "coordinates": [
          [
            [
              83.878,
              22.948
            ],
            [
              83.988,
              22.855
            ],
            [
              84.098,
              22.763
            ],
            [
              84.208,
              22.67
            ],
            [
              84.318,
              22.578
            ],
            [
              84.468,
              22.603
            ],
            [
              84.618,
              22.628
            ],
            [
              84.768,
              22.653
            ],
            [
              84.918,
              22.678
            ],
            [
              84.868,
              22.513
            ],
            [
              84.818,
              22.348
            ],
            [
              84.768,
              22.183
            ],
            [
              84.718,
              22.018
            ],
            [
              84.583,
              22.033
            ],
            [
              84.448,
              22.048
            ],
            [
              84.313,
              22.063
            ],
            [
              84.178,
              22.078
            ],
            [
              84.103,
              22.295
            ],
            [
              84.028,
              22.513
            ],
            [
              83.953,
              22.73
            ],
            [
              83.878,
              22.948
            ]
          ]
        ]
      }
    },
    {
      "type": "Feature",
      "properties": {
        "district_id": "west_singhbhum",
        "district_name": "West Singhbhum",
        "state": "Jharkhand"
      },
      "geometry": {
        "type": "Polygon",
        "coordinates": [
          [
            [
              84.918,
              22.678
            ],
            [
              85.05,
              22.663
            ],
            [
              85.183,
              22.648
            ],
            [
              85.315,
              22.633
            ],
            [
              85.448,
              22.618
            ],
            [
              85.605,
              22.633
            ],
            [
              85.763,
              22.648
            ],
            [
              85.92,
              22.663
            ],
            [
              86.078,
              22.678
            ],
            [
              86.113,
              22.503
            ],
            [
              86.148,
              22.328
            ],
            [
              86.183,
              22.153
            ],
            [
              86.218,
              21.978
            ],
            [
              86.133,
              21.953
            ],
            [
              86.048,
              21.928
            ],
            [
              85.963,
              21.903
            ],
            [
              85.878,
              21.878
            ],
            [
              85.588,
              21.913
            ],
            [
              85.298,
              21.948
            ],
            [
              85.008,
              21.983
            ],
            [
              84.718,
              22.018
            ],
            [
              84.768,
              22.183
            ],
            [
              84.818,
              22.348
            ],
            [
              84.868,
              22.513
            ],
            [
              84.918,
              22.678
            ]
          ]
        ]
      }
    },
    {
      "type": "Feature",
      "properties": {
        "district_id": "seraikela_kharsawan",
        "district_name": "Seraikela-Kharsawan",
        "state": "Jharkhand"
      },
      "geometry": {
        "type": "Polygon",
        "coordinates": [
          [
            [
              85.818,
              22.878
            ],
            [
              86.033,
              22.895
            ],
            [
              86.248,
              22.913
            ],
            [
              86.463,
              22.93
            ],
            [
              86.678,
              22.948
            ],
            [
              86.72,
              22.823
            ],
            [
              86.763,
              22.698
            ],
            [
              86.805,
              22.573
            ],
            [
              86.848,
              22.448
            ],
            [
              86.655,
              22.505
            ],
            [
              86.463,
              22.563
            ],
            [
              86.27,
              22.62
            ],
            [
              86.078,
              22.678
            ],
            [
              86.013,
              22.745
            ],
            [
              85.948,
              22.778
            ],
            [
              85.883,
              22.828
            ],
            [
              85.818,
              22.878
            ]
          ]
        ]
      }
    },
    {
      "type": "Feature",
      "properties": {
        "district_id": "east_singhbhum",
        "district_name": "East Singhbhum",
        "state": "Jharkhand"
      },
      "geometry": {
        "type": "Polygon",
        "coordinates": [
          [
            [
              86.678,
              22.948
            ],
            [
              86.888,
              22.965
            ],
            [
              87.098,
              22.983
            ],
            [
              87.308,
              23
            ],
            [
              87.518,
              23.018
            ],
            [
              87.493,
              22.825
            ],
            [
              87.468,
              22.633
            ],
            [
              87.443,
              22.44
            ],
            [
              87.418,
              22.248
            ],
            [
              87.275,
              22.298
            ],
            [
              87.133,
              22.348
            ],
            [
              86.99,
              22.398
            ],
            [
              86.848,
              22.448
            ],
            [
              86.805,
              22.573
            ],
            [
              86.763,
              22.698
            ],
            [
              86.72,
              22.823
            ],
            [
              86.678,
              22.948
            ]
          ]
        ]
      }
    }
  ]
}